{"type": "FeatureCollection", "features": [ {"type": "Feature", "properties": {"norad_id": 66574, "name": "STARLINK-35812", "group": "last-30-days", "lat": 37.88147104764766, "lon": 96.45382334291601, "alt_km": 452.02483121762634, "timestamp": "2025-12-26T15:29:38.165187+00:00", "meta": {"OBJECT_NAME": "STARLINK-35812", "OBJECT_ID": "2025-268T", "EPOCH": "2025-12-26T06:00:02.999808", "MEAN_MOTION": 15.38092493, "ECCENTRICITY": 0.00013654, "INCLINATION": 43.0004, "RA_OF_ASC_NODE": 42.1226, "ARG_OF_PERICENTER": 269.26, "MEAN_ANOMALY": 123.5274, "EPHEMERIS_TYPE": 0, "CLASSIFICATION_TYPE": "U", "NORAD_CAT_ID": 66574, "ELEMENT_SET_NO": 999, "REV_AT_EPOCH": 606, "BSTAR": -0.061358908, "MEAN_MOTION_DOT": -0.02118726, "MEAN_MOTION_DDOT": 0}, "tle": {"line1": "1 66574U 25268T   25360.25003472 -.02118726  00000+0 -61359-1 0  9993", "line2": "2 66574  43.0004  42.1226 0001365 269.2600 123.5274 15.38092493  6068"}}, "geometry": {"type": "Point", "coordinates": [96.45382334291601, 37.88147104764766]}}, {"type": "Feature", "properties": {"norad_id": 66575, "name": "STARLINK-35810", "group": "last-30-days", "lat": 42.07334933266635, "lon": 115.4478916615979, "alt_km": 449.02302146558213, "timestamp": "2025-12-26T15:29:38.165198+00:00", "meta": {"OBJECT_NAME": "STARLINK-35810", "OBJECT_ID": "2025-268U", "EPOCH": "2025-12-26T06:00:02.999808", "MEAN_MOTION": 15.38930197, "ECCENTRICITY": 0.00014564, "INCLINATION": 43.0007, "RA_OF_ASC_NODE": 42.0881, "ARG_OF_PERICENTER": 270.1639, "MEAN_ANOMALY": 136.5433, "EPHEMERIS_TYPE": 0, "CLASSIFICATION_TYPE": "U", "NORAD_CAT_ID": 66575, "ELEMENT_SET_NO": 999, "REV_AT_EPOCH": 606, "BSTAR": -0.059430802, "MEAN_MOTION_DOT": -0.02074677, "MEAN_MOTION_DDOT": 0}, "tle": {"line1": "1 66575U 25268U   25360.25003472 -.02074677  00000+0 -59431-1 0  9998", "line2": "2 66575  43.0007  42.0881 0001456 270.1639 136.5433 15.38930197  6065"}}, "geometry": {"type": "Point", "coordinates": [115.4478916615979, 42.07334933266635]}}, {"type": "Feature", "properties": {"norad_id": 66576, "name": "STARLINK-35814", "group": "last-30-days", "lat": 42.85308700449794, "lon": 135.19108970897614, "alt_km": 446.4047179240915, "timestamp": "2025-12-26T15:29:38.165208+00:00", "meta": {"OBJECT_NAME": "STARLINK-35814", "OBJECT_ID": "2025-268V", "EPOCH": "2025-12-26T06:00:02.999808", "MEAN_MOTION": 15.39758253, "ECCENTRICITY": 0.00014412, "INCLINATION": 43.0008, "RA_OF_ASC_NODE": 42.056, "ARG_OF_PERICENTER": 275.0591, "MEAN_ANOMALY": 145.0114, "EPHEMERIS_TYPE": 0, "CLASSIFICATION_TYPE": "U", "NORAD_CAT_ID": 66576, "ELEMENT_SET_NO": 999, "REV_AT_EPOCH": 606, "BSTAR": -0.057148286, "MEAN_MOTION_DOT": -0.02053341, "MEAN_MOTION_DDOT": 0}, "tle": {"line1": "1 66576U 25268V   25360.25003472 -.02053341  00000+0 -57148-1 0  9997", "line2": "2 66576  43.0008  42.0560 0001441 275.0591 145.0114 15.39758253  6069"}}, "geometry": {"type": "Point", "coordinates": [135.19108970897614, 42.85308700449794]}}, {"type": "Feature", "properties": {"norad_id": 66577, "name": "STARLINK-35815", "group": "last-30-days", "lat": 37.6043869259102, "lon": 163.98348289213448, "alt_km": 442.91923256393966, "timestamp": "2025-12-26T15:29:38.165218+00:00", "meta": {"OBJECT_NAME": "STARLINK-35815", "OBJECT_ID": "2025-268W", "EPOCH": "2025-12-26T06:00:02.999808", "MEAN_MOTION": 15.41203697, "ECCENTRICITY": 0.00015617, "INCLINATION": 43.0004, "RA_OF_ASC_NODE": 42.0069, "ARG_OF_PERICENTER": 276.6644, "MEAN_ANOMALY": 163.8278, "EPHEMERIS_TYPE": 0, "CLASSIFICATION_TYPE": "U", "NORAD_CAT_ID": 66577, "ELEMENT_SET_NO": 999, "REV_AT_EPOCH": 601, "BSTAR": -0.053938774, "MEAN_MOTION_DOT": -0.02036303, "MEAN_MOTION_DDOT": 0}, "tle": {"line1": "1 66577U 25268W   25360.25003472 -.02036303  00000+0 -53939-1 0  9991", "line2": "2 66577  43.0004  42.0069 0001561 276.6644 163.8278 15.41203697  6013"}}, "geometry": {"type": "Point", "coordinates": [163.98348289213448, 37.6043869259102]}}, {"type": "Feature", "properties": {"norad_id": 66578, "name": "STARLINK-35743", "group": "last-30-days", "lat": 31.724908293678663, "lon": 178.1339624145751, "alt_km": 441.09414870916953, "timestamp": "2025-12-26T15:29:38.165229+00:00", "meta": {"OBJECT_NAME": "STARLINK-35743", "OBJECT_ID": "2025-268X", "EPOCH": "2025-12-26T06:00:02.999808", "MEAN_MOTION": 15.41930742, "ECCENTRICITY": 0.00013999, "INCLINATION": 42.9992, "RA_OF_ASC_NODE": 41.9781, "ARG_OF_PERICENTER": 271.748, "MEAN_ANOMALY": 180.6555, "EPHEMERIS_TYPE": 0, "CLASSIFICATION_TYPE": "U", "NORAD_CAT_ID": 66578, "ELEMENT_SET_NO": 999, "REV_AT_EPOCH": 584, "BSTAR": -0.049167096, "MEAN_MOTION_DOT": -0.01916095, "MEAN_MOTION_DDOT": 0}, "tle": {"line1": "1 66578U 25268X   25360.25003472 -.01916095  00000+0 -49167-1 0  9994", "line2": "2 66578  42.9992  41.9781 0001399 271.7480 180.6555 15.41930742  5843"}}, "geometry": {"type": "Point", "coordinates": [178.1339624145751, 31.724908293678663]}}, {"type": "Feature", "properties": {"norad_id": 66579, "name": "STARLINK-35868", "group": "last-30-days", "lat": 24.81671144535659, "lon": -170.08516073854273, "alt_km": 439.7407657398862, "timestamp": "2025-12-26T15:29:38.165253+00:00", "meta": {"OBJECT_NAME": "STARLINK-35868", "OBJECT_ID": "2025-268Y", "EPOCH": "2025-12-26T06:00:02.999808", "MEAN_MOTION": 15.42871634, "ECCENTRICITY": 0.00013137, "INCLINATION": 43.0006, "RA_OF_ASC_NODE": 41.9497, "ARG_OF_PERICENTER": 287.7282, "MEAN_ANOMALY": 175.8633, "EPHEMERIS_TYPE": 0, "CLASSIFICATION_TYPE": "U", "NORAD_CAT_ID": 66579, "ELEMENT_SET_NO": 999, "REV_AT_EPOCH": 590, "BSTAR": -0.050575181, "MEAN_MOTION_DOT": -0.02021776, "MEAN_MOTION_DDOT": 0}, "tle": {"line1": "1 66579U 25268Y   25360.25003472 -.02021776  00000+0 -50575-1 0  9994", "line2": "2 66579  43.0006  41.9497 0001313 287.7282 175.8633 15.42871634  5904"}}, "geometry": {"type": "Point", "coordinates": [-170.08516073854273, 24.81671144535659]}}, {"type": "Feature", "properties": {"norad_id": 66580, "name": "STARLINK-35872", "group": "last-30-days", "lat": 17.446137741142664, "lon": -160.07190681092962, "alt_km": 438.2351923194565, "timestamp": "2025-12-26T15:29:38.165267+00:00", "meta": {"OBJECT_NAME": "STARLINK-35872", "OBJECT_ID": "2025-268Z", "EPOCH": "2025-12-26T06:00:02.999808", "MEAN_MOTION": 15.43708055, "ECCENTRICITY": 0.00012645, "INCLINATION": 43.0004, "RA_OF_ASC_NODE": 41.9243, "ARG_OF_PERICENTER": 284.5813, "MEAN_ANOMALY": 189.7173, "EPHEMERIS_TYPE": 0, "CLASSIFICATION_TYPE": "U", "NORAD_CAT_ID": 66580, "ELEMENT_SET_NO": 999, "REV_AT_EPOCH": 601, "BSTAR": -0.049090796, "MEAN_MOTION_DOT": -0.02019491, "MEAN_MOTION_DDOT": 0}, "tle": {"line1": "1 66580U 25268Z   25360.25003472 -.02019491  00000+0 -49091-1 0  9998", "line2": "2 66580  43.0004  41.9243 0001264 284.5813 189.7173 15.43708055  6016"}}, "geometry": {"type": "Point", "coordinates": [-160.07190681092962, 17.446137741142664]}}, {"type": "Feature", "properties": {"norad_id": 66581, "name": "STARLINK-35744", "group": "last-30-days", "lat": 9.990819770572024, "lon": -151.2884223281388, "alt_km": 436.76432223470965, "timestamp": "2025-12-26T15:29:38.165278+00:00", "meta": {"OBJECT_NAME": "STARLINK-35744", "OBJECT_ID": "2025-268AA", "EPOCH": "2025-12-26T06:00:02.999808", "MEAN_MOTION": 15.4455502, "ECCENTRICITY": 0.00011869, "INCLINATION": 43.0003, "RA_OF_ASC_NODE": 41.8986, "ARG_OF_PERICENTER": 285.9357, "MEAN_ANOMALY": 198.5081, "EPHEMERIS_TYPE": 0, "CLASSIFICATION_TYPE": "U", "NORAD_CAT_ID": 66581, "ELEMENT_SET_NO": 999, "REV_AT_EPOCH": 596, "BSTAR": -0.048247689, "MEAN_MOTION_DOT": -0.02040663, "MEAN_MOTION_DDOT": 0}, "tle": {"line1": "1 66581U 25268AA  25360.25003472 -.02040663  00000+0 -48248-1 0  9997", "line2": "2 66581  43.0003  41.8986 0001186 285.9357 198.5081 15.44555020  5962"}}, "geometry": {"type": "Point", "coordinates": [-151.2884223281388, 9.990819770572024]}}, {"type": "Feature", "properties": {"norad_id": 66582, "name": "STARLINK-35746", "group": "last-30-days", "lat": -1.4832527424048874, "lon": -138.84204080561713, "alt_km": 433.73731219073943, "timestamp": "2025-12-26T15:29:38.165289+00:00", "meta": {"OBJECT_NAME": "STARLINK-35746", "OBJECT_ID": "2025-268AB", "EPOCH": "2025-12-26T06:00:02.999808", "MEAN_MOTION": 15.46010478, "ECCENTRICITY": 0.00011666, "INCLINATION": 43.0003, "RA_OF_ASC_NODE": 41.8608, "ARG_OF_PERICENTER": 280.567, "MEAN_ANOMALY": 218.727, "EPHEMERIS_TYPE": 0, "CLASSIFICATION_TYPE": "U", "NORAD_CAT_ID": 66582, "ELEMENT_SET_NO": 999, "REV_AT_EPOCH": 596, "BSTAR": -0.046346094, "MEAN_MOTION_DOT": -0.02059146, "MEAN_MOTION_DDOT": 0}, "tle": {"line1": "1 66582U 25268AB  25360.25003472 -.02059146  00000+0 -46346-1 0  9991", "line2": "2 66582  43.0003  41.8608 0001166 280.5670 218.7270 15.46010478  5961"}}, "geometry": {"type": "Point", "coordinates": [-138.84204080561713, -1.4832527424048874]}}, {"type": "Feature", "properties": {"norad_id": 66583, "name": "STARLINK-35941", "group": "last-30-days", "lat": -8.13954793796131, "lon": -131.62971734597306, "alt_km": 431.93191689842297, "timestamp": "2025-12-26T15:29:38.165299+00:00", "meta": {"OBJECT_NAME": "STARLINK-35941", "OBJECT_ID": "2025-268AC", "EPOCH": "2025-12-26T06:00:02.999808", "MEAN_MOTION": 15.46852074, "ECCENTRICITY": 0.00012329, "INCLINATION": 43.0001, "RA_OF_ASC_NODE": 41.8394, "ARG_OF_PERICENTER": 282.4901, "MEAN_ANOMALY": 225.4134, "EPHEMERIS_TYPE": 0, "CLASSIFICATION_TYPE": "U", "NORAD_CAT_ID": 66583, "ELEMENT_SET_NO": 999, "REV_AT_EPOCH": 601, "BSTAR": -0.044983045, "MEAN_MOTION_DOT": -0.02058282, "MEAN_MOTION_DDOT": 0}, "tle": {"line1": "1 66583U 25268AC  25360.25003472 -.02058282  00000+0 -44983-1 0  9997", "line2": "2 66583  43.0001  41.8394 0001232 282.4901 225.4134 15.46852074  6011"}}, "geometry": {"type": "Point", "coordinates": [-131.62971734597306, -8.13954793796131]}}]}